{
    "links": {
        "self": "http://www.neowsapp.com/rest/v1/neo/3840839?api_key=iIulBulltgU6a56xZRHN4H3l9WmuAYTsLGpBGhQ2"
    },
    "id": "3840839",
    "neo_reference_id": "3840839",
    "name": "(2019 GG3)",
    "designation": "2019 GG3",
    "nasa_jpl_url": "http://ssd.jpl.nasa.gov/sbdb.cgi?sstr=3840839",
    "absolute_magnitude_h": 24.2,
    "estimated_diameter": {
        "kilometers": {
            "estimated_diameter_min": 0.0384197891,
            "estimated_diameter_max": 0.0859092601
        },
        "meters": {
            "estimated_diameter_min": 38.4197891064,
            "estimated_diameter_max": 85.9092601232
        },
        "miles": {
            "estimated_diameter_min": 0.0238729428,
            "estimated_diameter_max": 0.0533815229
        },
        "feet": {
            "estimated_diameter_min": 126.0491808919,
            "estimated_diameter_max": 281.8545369825
        }
    },
    "is_potentially_hazardous_asteroid": false,
    "close_approach_data": [
        {
            "close_approach_date": "2019-04-25",
            "close_approach_date_full": "2019-Apr-25 20:04",
            "epoch_date_close_approach": 1556222640000,
            "relative_velocity": {
                "kilometers_per_second": "7.3505571146",
                "kilometers_per_hour": "26462.0056125404",
                "miles_per_hour": "16442.4612096366"
            },
            "miss_distance": {
                "astronomical": "0.0673899957",
                "lunar": "26.2147083273",
                "kilometers": "10081399.816029159",
                "miles": "6264291.3666300342"
            },
            "orbiting_body": "Earth"
        },
        {
            "close_approach_date": "2154-04-30",
            "close_approach_date_full": "2154-Apr-30 21:14",
            "epoch_date_close_approach": 5816870040000,
            "relative_velocity": {
                "kilometers_per_second": "3.4269816026",
                "kilometers_per_hour": "12337.1337694355",
                "miles_per_hour": "7665.8151469029"
            },
            "miss_distance": {
                "astronomical": "1.3243985924",
                "lunar": "515.1910524436",
                "kilometers": "198127208.454038188",
                "miles": "123110538.6218074744"
            },
            "orbiting_body": "Juptr"
        }
    ],
    "orbital_data": {
        "orbit_id": "4",
        "orbit_determination_date": "2019-04-28 06:55:08",
        "first_observation_date": "2019-04-04",
        "last_observation_date": "2019-04-27",
        "data_arc_in_days": 23,
        "observations_used": 41,
        "orbit_uncertainty": "7",
        "minimum_orbit_intersection": ".0668391",
        "jupiter_tisserand_invariant": "3.301",
        "epoch_osculation": "2459000.5",
        "eccentricity": ".5582911824157221",
        "semi_major_axis": "2.385613762403158",
        "inclination": "4.607820226750318",
        "ascending_node_longitude": "4.679623927083226",
        "orbital_period": "1345.856090380211",
        "perihelion_distance": "1.053746634203879",
        "perihelion_argument": "219.5494354690043",
        "aphelion_distance": "3.717480890602437",
        "perihelion_time": "2458607.042705333522",
        "mean_anomaly": "105.2450013730047",
        "mean_motion": ".2674877370420028",
        "equinox": "J2000",
        "orbit_class": {
            "orbit_class_type": "AMO",
            "orbit_class_description": "Near-Earth asteroid orbits similar to that of 1221 Amor",
            "orbit_class_range": "1.017 AU < q (perihelion) < 1.3 AU"
        }
    },
    "is_sentry_object": false
}